<?xml version="1.0" encoding="UTF-8"?>
<kml xmlns="http://www.opengis.net/kml/2.2" xmlns:gx="http://www.google.com/kml/ext/2.2" xmlns:kml="http://www.opengis.net/kml/2.2" xmlns:atom="http://www.w3.org/2005/Atom">
<Document>
	<name>frag-250.kml</name>
	<StyleMap id="m_ylw-pushpin">
		<Pair>
			<key>normal</key>
			<styleUrl>#s_ylw-pushpin</styleUrl>
		</Pair>
		<Pair>
			<key>highlight</key>
			<styleUrl>#s_ylw-pushpin_hl</styleUrl>
		</Pair>
	</StyleMap>
	<Style id="s_ylw-pushpin">
		<IconStyle>
			<scale>1.1</scale>
			<Icon>
				<href>http://maps.google.com/mapfiles/kml/pushpin/ylw-pushpin.png</href>
			</Icon>
			<hotSpot x="20" y="2" xunits="pixels" yunits="pixels"/>
		</IconStyle>
	</Style>
	<Style id="s_ylw-pushpin_hl">
		<IconStyle>
			<scale>1.3</scale>
			<Icon>
				<href>http://maps.google.com/mapfiles/kml/pushpin/ylw-pushpin.png</href>
			</Icon>
			<hotSpot x="20" y="2" xunits="pixels" yunits="pixels"/>
		</IconStyle>
	</Style>
	<Placemark>
		<name>frag-250</name>
		<styleUrl>#m_ylw-pushpin</styleUrl>
		<LineString>
			<tessellate>1</tessellate>
			<coordinates>
				141.5032400583816,40.55292759575597,0 141.5070427630355,40.55559174599944,0 141.5262099472411,40.55246794342069,0 141.5308465765306,40.5564975296034,0 141.5318872560606,40.56579995756962,0 141.5521370525892,41.44174514986103,0 140.9253843698486,41.63605896332731,0 140.2880658081561,41.36260457089995,0 139.540065445989,40.71338385533237,0 128.2369281785406,33.04318806491813,0 122.6020408321457,24.40004749152817,0 121.6583559543378,21.85588004775827,0 104.9471793142767,2.617802331781148,0 104.5678710491604,1.44675280668715,0 104.3323279389967,1.267019661433893,0 104.1010581045311,1.271744813296491,0 103.9698924536706,1.257359850039965,0 103.7227719850335,1.133717702610507,0 103.6532844133676,1.181764740989545,0 103.542330407451,1.194110210845039,0 103.3950942342401,1.235251125692634,0 102.6299524171477,1.81131114751798,0 102.115326389075,2.051891400294534,0 101.1392733330466,2.781183244695839,0 100.3770247338217,3.437343500571896,0 98.36975703290911,5.365089778751545,0 94.97702635095341,6.315332295680097,0 80.68893432928706,5.577709838778959,0 72.80420078545563,7.737676729812768,0 53.84456694189993,13.23270848577305,0 43.93175251244649,12.29038051111541,0 43.64456190260821,12.5222367517763,0 43.43523368268205,12.58510810065513,0 43.42853607469613,12.58578383275337,0 43.32891674624833,12.63090301476552,0 42.88131347059073,13.3950781380249,0 42.69856273802542,13.43832726997313,0 41.55389530343695,15.20313692645663,0 41.37117368795716,15.62722614090004,0 34.35163908512444,27.53440881412363,0 34.07153302989105,27.57779200408033,0 33.72412918754635,27.86921616469656,0 33.06215818412915,28.58984540515096,0 32.64398008639436,29.43475704869351,0 32.54954553842872,29.89145237823346,0 
			</coordinates>
		</LineString>
		<atom:link rel="app" href="https://www.google.com/earth/about/versions/#earth-pro" title="Google Earth Pro 7.3.7.1155"></atom:link>
	</Placemark>
</Document>
</kml>
